OBJECT_NAME,OBJECT_ID,EPOCH,MEAN_MOTION,ECCENTRICITY,INCLINATION,RA_OF_ASC_NODE,ARG_OF_PERICENTER,MEAN_ANOMALY,EPHEMERIS_TYPE,CLASSIFICATION_TYPE,NORAD_CAT_ID,ELEMENT_SET_NO,REV_AT_EPOCH,BSTAR,MEAN_MOTION_DOT,MEAN_MOTION_DDOT
FENGYUN 1C DEB,1999-025PE,2021-09-01T09:27:30.880224,13.79155938,.0381191,98.6612,159.7467,290.5116,187.6158,0,U,30053,999,73346,.92028E-4,.119E-5,0
FENGYUN 1C DEB,1999-025PF,2021-09-01T01:41:11.236416,13.67525985,.0283507,99.5723,282.2926,87.9777,328.1566,0,U,30054,999,72961,.15029E-3,.125E-5,0
FENGYUN 1C DEB,1999-025PH,2021-09-01T12:48:34.837056,13.64035430,.0328268,98.3377,255.8201,69.6822,293.9278,0,U,30056,999,72600,.54359E-3,.591E-5,0
FENGYUN 1C DEB,1999-025PJ,2021-09-01T13:31:09.112224,13.52115318,.0302058,98.8471,90.7163,205.0437,213.7807,0,U,30057,999,72079,.48434E-3,.386E-5,0
FENGYUN 1C DEB,1999-025PK,2021-09-01T02:10:53.068800,13.45730720,.0322413,99.7510,276.6386,61.2106,1.4903,0,U,30058,999,71800,.17548E-3,.101E-5,0
FENGYUN 1C DEB,1999-025PL,2021-09-01T09:22:29.477280,13.44445439,.0328836,98.8452,39.2946,299.8284,111.5320,0,U,30059,999,71783,.18245E-3,.108E-5,0
FENGYUN 1C DEB,1999-025PM,2021-09-01T10:08:23.913600,13.38135413,.0363538,99.3164,208.5032,344.1247,168.2329,0,U,30060,999,71297,.52889E-3,.369E-5,0
FENGYUN 1C DEB,1999-025PN,2021-09-01T10:53:34.926144,13.36842283,.0389656,101.8969,59.9749,168.0397,252.5077,0,U,30061,999,71147,.99684E-3,.742E-5,0
FENGYUN 1C DEB,1999-025PP,2021-09-01T13:42:36.533952,14.04477639,.0051669,98.8927,273.8055,109.7505,7.4822,0,U,30062,999,74949,-.60302E-4,-.14E-5,0
FENGYUN 1C DEB,1999-025PQ,2021-09-01T02:10:43.112928,14.14893642,.0031767,98.5244,277.1798,314.8211,103.9193,0,U,30063,999,75549,.16587E-4,-.1E-6,0
FENGYUN 1C DEB,1999-025PR,2021-09-01T00:36:58.821984,14.12826067,.0066087,98.7888,274.3428,247.2504,172.0600,0,U,30064,999,75416,.59742E-4,.69E-6,0
FENGYUN 1C DEB,1999-025PS,2021-09-01T09:42:21.115584,13.86169985,.0131399,98.7538,309.2748,336.7185,22.8056,0,U,30065,999,74008,.2459E-4,-.11E-6,0
FENGYUN 1C DEB,1999-025PT,2021-09-01T12:34:48.256032,14.17561623,.0121326,98.6123,260.7888,86.7272,33.3164,0,U,30066,999,75693,.45627E-4,.58E-6,0
FENGYUN 1C DEB,1999-025PU,2021-09-01T11:08:26.560320,14.38213881,.0163392,98.8842,55.5544,337.0692,75.8042,0,U,30067,999,76694,.66381E-4,.181E-5,0
FENGYUN 1C DEB,1999-025PV,2021-09-01T13:15:50.113440,14.10426556,.0194968,98.6955,259.1742,110.7483,251.4700,0,U,30068,999,75298,.763E-4,.121E-5,0
FENGYUN 1C DEB,1999-025PW,2021-09-01T07:50:26.234592,14.03427383,.0051244,98.7507,262.0380,114.2407,314.7913,0,U,30069,999,74906,-.30149E-4,-.89E-6,0
FENGYUN 1C DEB,1999-025PX,2021-09-01T12:16:18.801408,13.91956731,.0393192,98.2410,67.6444,52.1540,7.3864,0,U,30070,999,74022,.20301E-3,.449E-5,0
FENGYUN 1C DEB,1999-025PY,2021-09-01T03:12:09.496800,14.26532620,.0060181,98.7405,311.8818,49.8783,331.4395,0,U,30071,999,75798,.36357E-3,.849E-5,0
FENGYUN 1C DEB,1999-025PZ,2021-09-01T05:00:05.815296,14.11270455,.0085852,99.0728,331.6202,53.1673,307.7332,0,U,30072,999,74976,.40863E-3,.719E-5,0
FENGYUN 1C DEB,1999-025QA,2021-09-01T13:16:10.694784,14.06570884,.006409,99.3950,127.4367,307.1818,121.0655,0,U,30073,999,74879,.40924E-3,.642E-5,0
FENGYUN 1C DEB,1999-025QB,2021-09-01T06:44:20.668992,14.03265161,.0108711,99.2494,264.4210,177.1023,183.0795,0,U,30074,999,74675,.61562E-3,.966E-5,0
FENGYUN 1C DEB,1999-025QC,2021-09-01T13:21:19.488384,13.91796134,.0092431,99.4916,243.7335,60.6655,66.6538,0,U,30075,999,74315,-.4438E-5,-.52E-6,0
FENGYUN 1C DEB,1999-025QD,2021-09-01T12:31:30.396576,13.74945312,.0176301,99.2129,263.4358,254.9457,260.3964,0,U,30076,999,73403,.11125E-3,.75E-6,0
FENGYUN 1C DEB,1999-025QE,2021-09-01T13:10:16.644864,14.06787818,.0021058,98.9121,276.6343,338.8605,147.6256,0,U,30077,999,75144,.1078E-3,.136E-5,0
FENGYUN 1C DEB,1999-025QF,2021-09-01T03:47:34.865088,14.09948134,.006119,98.9585,303.5412,43.1021,19.0248,0,U,30078,999,75000,.23467E-3,.376E-5,0
FENGYUN 1C DEB,1999-025QG,2021-09-01T00:31:17.555808,13.99117412,.0080234,99.2576,277.9481,281.0331,141.2448,0,U,30079,999,74660,.1187E-3,.13E-5,0
FENGYUN 1C DEB,1999-025QH,2021-09-01T13:59:33.086976,14.08972358,.0136431,98.6509,264.3242,176.4626,298.8555,0,U,30080,999,75214,.14374E-3,.23E-5,0
FENGYUN 1C DEB,1999-025QJ,2021-09-01T13:09:33.192576,13.96388909,.0077217,98.9491,265.8753,328.5452,152.7453,0,U,30081,999,74526,-.11552E-4,-.6E-6,0
FENGYUN 1C DEB,1999-025QK,2021-09-01T05:11:02.862240,14.70677049,.0162709,98.8246,337.8484,111.7834,307.0268,0,U,30082,999,78088,.19243E-3,.1372E-4,0
FENGYUN 1C DEB,1999-025QN,2021-09-01T12:36:30.125952,14.96118259,.0093423,98.4010,143.7325,156.2291,204.3286,0,U,30085,999,78413,.36435E-3,.4404E-4,0
FENGYUN 1C DEB,1999-025QP,2021-09-01T12:33:45.995328,14.01636449,.0064444,99.0928,276.0511,150.6725,9.3246,0,U,30086,999,74783,-.7036E-4,-.153E-5,0
FENGYUN 1C DEB,1999-025QQ,2021-09-01T01:44:52.199232,14.30943478,.02443,98.5863,286.8101,77.4542,314.9194,0,U,30087,999,76304,.64325E-4,.184E-5,0
FENGYUN 1C DEB,1999-025QR,2021-09-01T13:21:14.853024,14.30339388,.0215777,98.3385,269.1667,218.9078,265.5957,0,U,30088,999,76305,.67287E-4,.176E-5,0
FENGYUN 1C DEB,1999-025QS,2021-09-01T12:18:02.753568,14.27612153,.007777,99.0675,83.0022,62.1775,351.3612,0,U,30089,999,76158,.86764E-4,.174E-5,0
FENGYUN 1C DEB,1999-025QT,2021-09-01T02:39:44.411616,14.24361646,.0060884,99.3897,289.8359,253.8783,161.4613,0,U,30090,999,75983,.93641E-4,.17E-5,0
FENGYUN 1C DEB,1999-025QV,2021-09-01T07:25:19.451424,14.31875895,.0093659,98.7568,4.6211,165.3318,249.9783,0,U,30092,999,76331,.13888E-3,.345E-5,0
FENGYUN 1C DEB,1999-025QW,2021-09-01T10:20:15.109152,14.33402055,.0080979,98.9041,39.7108,262.8657,154.5487,0,U,30093,999,76344,.19075E-3,.498E-5,0
FENGYUN 1C DEB,1999-025QX,2021-09-01T04:41:28.401504,14.69701503,.0045229,99.0071,288.0513,271.7422,87.8601,0,U,30094,999,77230,.58868E-3,.35E-4,0
FENGYUN 1C DEB,1999-025QY,2021-09-01T04:48:26.901504,14.43236550,.02819,99.2253,330.7916,5.9349,354.5064,0,U,30095,999,76572,.14662E-3,.73E-5,0
FENGYUN 1C DEB,1999-025QZ,2021-09-01T10:05:29.256000,14.28301109,.0084644,99.2037,212.7262,59.8565,301.0969,0,U,30096,999,76208,.88811E-4,.182E-5,0
FENGYUN 1C DEB,1999-025RA,2021-09-01T08:22:13.278720,14.95259415,.0051576,99.2885,176.5572,271.5922,87.9386,0,U,30097,999,77616,.11124E-2,.1251E-3,0
FENGYUN 1C DEB,1999-025RB,2021-09-01T09:02:02.267232,15.04399060,.0043017,99.3319,204.3100,224.1756,135.6026,0,U,30098,999,77703,.1255E-2,.17837E-3,0
FENGYUN 1C DEB,1999-025RC,2021-09-01T04:58:43.256640,14.22978950,.006566,98.6561,328.5456,114.4076,300.3873,0,U,30099,999,75935,.63955E-4,.104E-5,0
FENGYUN 1C DEB,1999-025RE,2021-09-01T00:42:58.811040,14.47894988,.0036001,99.1895,260.3290,340.8963,19.0875,0,U,30101,999,76504,.70396E-3,.2578E-4,0
FENGYUN 1C DEB,1999-025RF,2021-09-01T13:27:35.606592,14.19473527,.0146716,98.5482,300.0873,222.7230,276.1899,0,U,30102,999,75765,.72437E-4,.127E-5,0
FENGYUN 1C DEB,1999-025RG,2021-09-01T05:40:19.902144,14.19899063,.006695,99.1426,144.1280,255.8011,259.8951,0,U,30103,999,75749,.10384E-3,.177E-5,0
FENGYUN 1C DEB,1999-025RH,2021-09-01T05:10:02.562816,14.19935741,.0080944,98.5215,127.0724,346.6749,128.5799,0,U,30104,999,75669,.178E-3,.348E-5,0
FENGYUN 1C DEB,1999-025RJ,2021-09-01T06:49:30.629856,14.17311004,.0207669,98.5585,262.4965,273.8547,83.8910,0,U,30105,999,75591,.84282E-4,.164E-5,0
FENGYUN 1C DEB,1999-025RK,2021-09-01T09:18:36.961920,14.31781916,.0123188,98.9557,37.4164,198.7330,216.2063,0,U,30106,999,75923,.69757E-3,.1978E-4,0
FENGYUN 1C DEB,1999-025RL,2021-09-01T01:56:59.903232,14.13596820,.0129488,99.0656,276.4443,24.4294,336.2941,0,U,30107,999,75464,.34129E-4,.24E-6,0
FENGYUN 1C DEB,1999-025RM,2021-09-01T12:34:57.086976,14.14153493,.0204295,98.6152,260.3798,186.1704,301.2212,0,U,30108,999,75486,.66829E-4,.112E-5,0
FENGYUN 1C DEB,1999-025RN,2021-09-01T08:27:25.180128,14.13935861,.0176472,98.5911,284.8110,49.1332,12.5206,0,U,30109,999,75437,.64003E-4,.1E-5,0
FENGYUN 1C DEB,1999-025RP,2021-09-01T13:30:43.363296,13.55224715,.0271688,98.8845,130.2356,62.8066,300.0488,0,U,30110,999,72335,.13568E-3,.82E-6,0
FENGYUN 1C DEB,1999-025RQ,2021-09-01T12:08:14.811936,14.49397685,.0098328,101.6085,255.7521,197.5620,317.2719,0,U,30111,999,76290,.84071E-3,.3339E-4,0
FENGYUN 1C DEB,1999-025RR,2021-09-01T13:41:29.826240,14.15078916,.0218613,99.2168,137.3174,209.3812,149.4924,0,U,30112,999,75432,.92173E-4,.174E-5,0
FENGYUN 1C DEB,1999-025RS,2021-09-01T07:32:05.783712,14.21658531,.0057519,98.9985,14.5680,220.2170,200.6390,0,U,30113,999,75556,.51446E-3,.1102E-4,0
FENGYUN 1C DEB,1999-025RT,2021-09-01T13:56:50.839008,14.08082580,.0082145,98.8147,268.8725,212.8169,264.4319,0,U,30114,999,75146,.1124E-3,.154E-5,0
FENGYUN 1C DEB,1999-025RU,2021-09-01T02:08:15.593568,14.12104348,.0074848,98.7715,289.4805,209.9333,204.3879,0,U,30115,999,75213,.3015E-3,.524E-5,0
FENGYUN 1C DEB,1999-025RV,2021-09-01T10:01:08.446368,14.15815556,.0027598,99.3872,191.3523,74.6908,54.3992,0,U,30116,999,75304,.40164E-3,.744E-5,0
FENGYUN 1C DEB,1999-025RW,2021-09-01T13:32:18.191616,14.05423069,.0166614,98.7710,260.3093,285.4202,201.0053,0,U,30117,999,75021,.14383E-3,.22E-5,0
FENGYUN 1C DEB,1999-025RX,2021-09-01T07:21:43.155072,14.04287549,.0086234,98.8821,269.5463,115.5744,306.9000,0,U,30118,999,74983,.19556E-3,.279E-5,0
FENGYUN 1C DEB,1999-025RY,2021-09-01T09:27:01.811808,14.10836047,.0152806,97.9587,24.6523,176.8683,244.6757,0,U,30119,999,75067,.4346E-3,.832E-5,0
FENGYUN 1C DEB,1999-025RZ,2021-09-01T02:51:41.242176,14.13832835,.0075418,98.9643,298.2276,3.7370,49.8713,0,U,30120,999,75196,.29703E-3,.533E-5,0
FENGYUN 1C DEB,1999-025SA,2021-09-01T07:11:23.604000,14.17244994,.0046045,102.1727,6.1935,193.7132,195.4569,0,U,30121,999,75266,.56222E-3,.1073E-4,0
FENGYUN 1C DEB,1999-025SB,2021-09-01T03:11:14.934336,14.23260131,.0167519,95.9211,295.3169,196.1256,191.3440,0,U,30122,999,75323,.76348E-3,.1974E-4,0
